NORAD_CAT_ID,OBJECT_NAME,OBJECT_TYPE,EPOCH,MEAN_MOTION,ECCENTRICITY,INCLINATION,RA_OF_ASC_NODE,ARG_OF_PERICENTER,MEAN_ANOMALY,BSTAR,MEAN_MOTION_DOT,MEAN_MOTION_DDOT,TLE_LINE0,TLE_LINE1,TLE_LINE2,SEMIMAJOR_AXIS,PERIOD,APOGEE,PERIGEE,DECAYED
52608.0,STARLINK-3979,PAYLOAD,2023-04-27 12:31:16,15.08877224,0.0001892,53.2129,300.0399,91.9459,268.175,0.00023902,3.522e-05,0.0,0 STARLINK-3979,1 52608U 22052L   23117.52172336  .00003522  00000-0  23902-3 0  9996,2 52608  53.2129 300.0399 0001892  91.9459 268.1750 15.08877224 52770,6917.767,95.435,540.94,538.323,0.0
52608.0,STARLINK-3979,PAYLOAD,2023-04-27 14:06:40,15.08867543,3.71e-05,53.2163,299.7408,101.3903,258.7131,0.00033239,5.01e-05,0.0,0 STARLINK-3979,1 52608U 22052L   23117.58796345  .00005010  00000-0  33239-3 0  9992,2 52608  53.2163 299.7408 0000371 101.3903 258.7131 15.08867543 53158,6917.796,95.436,539.918,539.405,0.0
52608.0,STARLINK-3979,PAYLOAD,2023-04-28 07:35:53,15.08865838,0.0001343,53.2126,296.4693,82.2484,277.866,0.00026108,3.872e-05,0.0,0 STARLINK-3979,1 52608U 22052L   23118.31659627  .00003872  00000-0  26108-3 0  9996,2 52608  53.2126 296.4693 0001343  82.2484 277.8660 15.08865838 53264,6917.801,95.436,540.595,538.737,0.0
52608.0,STARLINK-3979,PAYLOAD,2023-04-28 18:43:35,15.08850253,2.08e-05,53.2162,294.3879,67.9767,292.1247,-8.6726e-05,-1.668e-05,0.0,0 STARLINK-3979,1 52608U 22052L   23118.78027494 -.00001668  00000-0 -86726-4 0  9994,2 52608  53.2162 294.3879 0000208  67.9767 292.1247 15.08850253 53334,6917.849,95.437,539.858,539.57,0.0
52608.0,STARLINK-3979,PAYLOAD,2023-04-29 07:26:40,15.08845529,6.19e-05,53.2157,292.0094,86.5317,273.5746,-7.3477e-05,-1.457e-05,0.0,0 STARLINK-3979,1 52608U 22052L   23119.31019435 -.00001457  00000-0 -73477-4 0  9995,2 52608  53.2157 292.0094 0000619  86.5317 273.5746 15.08845529 53041,6917.863,95.437,540.157,539.3,0.0
52608.0,STARLINK-3979,PAYLOAD,2023-04-29 16:58:59,15.08840051,6.22e-05,53.2154,290.225,65.8601,294.2456,-0.00010267,-1.921e-05,0.0,0 STARLINK-3979,1 52608U 22052L   23119.70763621 -.00001921  00000-0 -10267-3 0  9994,2 52608  53.2154 290.2250 0000622  65.8601 294.2456 15.08840051 53472,6917.88,95.438,540.176,539.315,0.0
52608.0,STARLINK-3979,PAYLOAD,2023-04-30 04:06:41,15.08840356,4.72e-05,53.2153,288.1434,78.8347,281.2698,8.2786e-05,1.03e-05,0.0,0 STARLINK-3979,1 52608U 22052L   23120.17131649  .00001030  00000-0  82786-4 0  9991,2 52608  53.2153 288.1434 0000472  78.8347 281.2698 15.08840356 53174,6917.879,95.438,540.071,539.418,0.0
52608.0,STARLINK-3979,PAYLOAD,2023-04-30 18:25:09,15.08846577,4.67e-05,53.2148,285.4673,68.0013,292.1028,0.00010985,1.461e-05,0.0,0 STARLINK-3979,1 52608U 22052L   23120.76747442  .00001461  00000-0  10985-3 0  9999,2 52608  53.2148 285.4673 0000467  68.0013 292.1028 15.08846577 53638,6917.86,95.437,540.048,539.402,0.0
52608.0,STARLINK-3979,PAYLOAD,2023-05-01 03:57:28,15.0884945,4.91e-05,53.2153,283.6816,73.393,286.7116,0.00026245,3.893e-05,0.0,0 STARLINK-3979,1 52608U 22052L   23121.16491304  .00003893  00000-0  26245-3 0  9994,2 52608  53.2153 283.6816 0000491  73.3930 286.7116 15.08849450 53323,6917.852,95.437,540.056,539.377,0.0
52608.0,STARLINK-3979,PAYLOAD,2023-05-01 18:15:57,15.08838988,3.88e-05,53.2155,281.0057,71.0756,289.0278,0.00012062,1.633e-05,0.0,0 STARLINK-3979,1 52608U 22052L   23121.76108089  .00001633  00000-0  12062-3 0  9997,2 52608  53.2155 281.0057 0000388  71.0756 289.0278 15.08838988 53789,6917.883,95.438,540.017,539.48,0.0
52608.0,STARLINK-3979,PAYLOAD,2023-05-02 10:09:48,15.08843453,3.7e-05,53.2153,278.0312,100.2693,259.8341,0.00013777,1.906e-05,0.0,0 STARLINK-3979,1 52608U 22052L   23122.42347944  .00001906  00000-0  13777-3 0  9993,2 52608  53.2153 278.0312 0000370 100.2693 259.8341 15.08843453 53513,6917.87,95.437,539.991,539.479,0.0
52608.0,STARLINK-3979,PAYLOAD,2023-05-02 16:31:20,15.08848718,3.98e-05,53.2149,276.8436,68.5937,291.5098,0.00020675,3.005e-05,0.0,0 STARLINK-3979,1 52608U 22052L   23122.68843672  .00003005  00000-0  20675-3 0  9997,2 52608  53.2149 276.8436 0000398  68.5937 291.5098 15.08848718 53553,6917.854,95.437,539.994,539.443,0.0
52608.0,STARLINK-3979,PAYLOAD,2023-05-03 02:03:39,15.08849137,3.88e-05,53.2148,275.0594,64.771,295.3322,0.00018102,2.595e-05,0.0,0 STARLINK-3979,1 52608U 22052L   23123.08587561  .00002595  00000-0  18102-3 0  9999,2 52608  53.2148 275.0594 0000388  64.7710 295.3322 15.08849137 53989,6917.852,95.437,539.986,539.449,0.0
52608.0,STARLINK-3979,PAYLOAD,2023-05-03 03:39:02,15.08846146,3.89e-05,53.2147,274.7615,72.7329,287.3705,0.00011876,1.603e-05,0.0,0 STARLINK-3979,1 52608U 22052L   23123.15211707  .00001603  00000-0  11876-3 0  9993,2 52608  53.2147 274.7615 0000389  72.7329 287.3705 15.08846146 53628,6917.862,95.437,539.996,539.457,0.0
52608.0,STARLINK-3979,PAYLOAD,2023-05-03 19:32:54,15.08836445,5.9e-05,53.2157,271.7849,111.7372,248.3683,8.4721e-06,-1.53e-06,0.0,0 STARLINK-3979,1 52608U 22052L   23123.81452333 -.00000153  00000-0  84721-5 0  9999,2 52608  53.2157 271.7849 0000590 111.7372 248.3683 15.08836445 54096,6917.891,95.438,540.164,539.348,0.0
52608.0,STARLINK-3979,PAYLOAD,2023-05-04 13:02:08,15.08846969,6.38e-05,53.2158,268.5146,144.7242,215.3793,5.114e-05,5.27e-06,0.0,0 STARLINK-3979,1 52608U 22052L   23124.54315783  .00000527  00000-0  51140-4 0  9999,2 52608  53.2158 268.5146 0000638 144.7242 215.3793 15.08846969 53835,6917.859,95.437,540.165,539.283,0.0
52608.0,STARLINK-3979,PAYLOAD,2023-05-04 16:12:55,15.08849059,4.49e-05,53.2151,267.9204,107.5999,252.5042,0.00015879,2.241e-05,0.0,0 STARLINK-3979,1 52608U 22052L   23124.67563751  .00002241  00000-0  15879-3 0  9996,2 52608  53.2151 267.9204 0000449 107.5999 252.5042 15.08849059 54229,6917.853,95.437,540.028,539.407,0.0
52608.0,STARLINK-3979,PAYLOAD,2023-05-05 09:42:10,15.08833556,8.07e-05,53.2153,264.6525,28.233,331.8706,0.00013042,1.788e-05,0.0,0 STARLINK-3979,1 52608U 22052L   23125.40428773  .00001788  00000-0  13042-3 0  9997,2 52608  53.2153 264.6525 0000807  28.2330 331.8706 15.08833556 54332,6917.9,95.438,540.323,539.207,0.0
52608.0,STARLINK-3979,PAYLOAD,2023-05-05 16:03:42,15.08837117,4.26e-05,53.2162,263.4599,119.015,241.0885,9.9949e-05,1.303e-05,0.0,0 STARLINK-3979,1 52608U 22052L   23125.66924449  .00001303  00000-0  99949-4 0  9990,2 52608  53.2162 263.4599 0000426 119.0150 241.0885 15.08837117 54007,6917.889,95.438,540.049,539.459,0.0
52608.0,STARLINK-3979,PAYLOAD,2023-05-06 15:54:30,15.08841075,6.1e-05,53.2153,259.0037,90.8995,269.2067,9.6858e-05,1.254e-05,0.0,0 STARLINK-3979,1 52608U 22052L   23126.66284922  .00001254  00000-0  96858-4 0  9997,2 52608  53.2153 259.0037 0000610  90.8995 269.2067 15.08841075 54151,6917.877,95.437,540.164,539.32,0.0
52608.0,STARLINK-3979,PAYLOAD,2023-05-07 12:34:31,15.08826163,4.95e-05,53.2154,255.1355,103.1353,256.9694,-6.174e-06,-3.86e-06,0.0,0 STARLINK-3979,1 52608U 22052L   23127.52397851 -.00000386  00000-0 -61740-5 0  9999,2 52608  53.2154 255.1355 0000495 103.1353 256.9694 15.08826163 54283,6917.923,95.438,540.13,539.445,0.0
52608.0,STARLINK-3979,PAYLOAD,2023-05-07 15:45:18,15.08828406,6.7e-05,53.2157,254.5384,82.1602,277.9466,6.9248e-05,8.14e-06,0.0,0 STARLINK-3979,1 52608U 22052L   23127.65646054  .00000814  00000-0  69248-4 0  9999,2 52608  53.2157 254.5384 0000670  82.1602 277.9466 15.08828406 54674,6917.916,95.438,540.244,539.317,0.0
52608.0,STARLINK-3979,PAYLOAD,2023-05-08 01:17:36,15.08833816,6.32e-05,53.2161,252.7567,74.0787,286.0274,0.00015174,2.128e-05,0.0,0 STARLINK-3979,1 52608U 22052L   23128.05389740  .00002128  00000-0  15174-3 0  9998,2 52608  53.2161 252.7567 0000632  74.0787 286.0274 15.08833816 54730,6917.899,95.438,540.202,539.327,0.0
52608.0,STARLINK-3979,PAYLOAD,2023-05-08 15:36:04,15.08849475,4.46e-05,53.2153,250.0818,80.6221,279.4822,0.00016045,2.268e-05,0.0,0 STARLINK-3979,1 52608U 22052L   23128.65004931  .00002268  00000-0  16045-3 0  9993,2 52608  53.2153 250.0818 0000446  80.6221 279.4822 15.08849475 54823,6917.851,95.437,540.025,539.408,0.0
52608.0,STARLINK-3979,PAYLOAD,2023-05-09 13:51:28,15.08848388,6.18e-05,53.215,245.9185,50.6727,309.432,0.00016909,2.405e-05,0.0,0 STARLINK-3979,1 52608U 22052L   23129.57740971  .00002405  00000-0  16909-3 0  9998,2 52608  53.2150 245.9185 0000618  50.6727 309.4320 15.08848388 54592,6917.855,95.437,540.147,539.292,0.0
52608.0,STARLINK-3979,PAYLOAD,2023-05-10 12:06:52,15.0884466,3.17e-05,53.217,241.7531,109.0642,251.0384,6.7478e-05,7.87e-06,0.0,0 STARLINK-3979,1 52608U 22052L   23130.50476857  .00000787  00000-0  67478-4 0  9991,2 52608  53.2170 241.7531 0000317 109.0642 251.0384 15.08844660 54731,6917.866,95.437,539.95,539.512,0.0
52608.0,STARLINK-3979,PAYLOAD,2023-05-10 13:42:15,15.0885015,6.41e-05,53.2157,241.4588,51.4734,308.6315,3.3552e-05,2.47e-06,0.0,0 STARLINK-3979,1 52608U 22052L   23130.57100836  .00000247  00000-0  33552-4 0  9996,2 52608  53.2157 241.4588 0000641  51.4734 308.6315 15.08850150 55114,6917.849,95.437,540.158,539.271,0.0
52608.0,STARLINK-3979,PAYLOAD,2023-05-11 10:22:15,15.08844149,5.45e-05,53.2152,237.5896,129.5482,230.5558,-2.9693e-05,-7.6e-06,0.0,0 STARLINK-3979,1 52608U 22052L   23131.43212584 -.00000760  00000-0 -29693-4 0  9999,2 52608  53.2152 237.5896 0000545 129.5482 230.5558 15.08844149 54872,6917.868,95.437,540.11,539.356,0.0
52608.0,STARLINK-3979,PAYLOAD,2023-05-11 13:33:01,15.08854394,7.19e-05,53.2178,236.9934,92.9958,267.1116,2.8247e-05,1.62e-06,0.0,0 STARLINK-3979,1 52608U 22052L   23131.56459999  .00000162  00000-0  28247-4 0  9994,2 52608  53.2178 236.9934 0000719  92.9958 267.1116 15.08854394 54891,6917.836,95.437,540.199,539.204,0.0
52608.0,STARLINK-3979,PAYLOAD,2023-05-13 11:39:12,15.08845491,6.66e-05,53.2165,228.3722,83.9974,276.1094,0.00011469,1.538e-05,0.0,0 STARLINK-3979,1 52608U 22052L   23133.48556400  .00001538  00000-0  11469-3 0  9997,2 52608  53.2165 228.3722 0000666  83.9974 276.1094 15.08845491 55553,6917.864,95.437,540.189,539.268,0.0
